CTC1_L_00326001-01
1 14977U 22255KM  26037.47804398  .00000000  00000+0  00000-0 0  9994
2 14977  65.0000   0.0000 0000000   0.0000   0.0000 14.51731110    16
CTC1_L_00326001-02
1 14978U 25116JZ  26037.47804398  .00000000  00000+0  00000-0 0  9994
2 14978  65.0000   0.0000 0000000   0.0000  90.0000 14.51731110    16
CTC1_L_00326001-03
1 14979U 23171ZH  26037.47804398  .00000000  00000+0  00000-0 0  9994
2 14979  65.0000   0.0000 0000000   0.0000 180.0000 14.51731110    17
CTC1_L_00326001-04
1 14980U 26306FY  26037.47804398  .00000000  00000+0  00000-0 0  9999
2 14980  65.0000   0.0000 0000000   0.0000 270.0000 14.51731110    19
CTC1_L_00326002-01
1 14981U 23085PH  26037.47804398  .00000000  00000+0  00000-0 0  9991
2 14981  65.0000  12.0000 0000000   0.0000  12.0000 14.51731110    17
CTC1_L_00326002-02
1 14982U 23248RT  26037.47804398  .00000000  00000+0  00000-0 0  9993
2 14982  65.0000  12.0000 0000000   0.0000 102.0000 14.51731110    18
CTC1_L_00326002-03
1 14983U 23318CS  26037.47804398  .00000000  00000+0  00000-0 0  9992
2 14983  65.0000  12.0000 0000000   0.0000 192.0000 14.51731110    18
CTC1_L_00326002-04
1 14984U 23618II  26037.47804398  .00000000  00000+0  00000-0 0  9996
2 14984  65.0000  12.0000 0000000   0.0000 282.0000 14.51731110    19
CTC1_L_00326003-01
1 14985U 23731UX  26037.47804398  .00000000  00000+0  00000-0 0  9993
2 14985  65.0000  24.0000 0000000   0.0000  24.0000 14.51731110    17
CTC1_L_00326003-02
1 14986U 26671YY  26037.47804398  .00000000  00000+0  00000-0 0  9990
2 14986  65.0000  24.0000 0000000   0.0000 114.0000 14.51731110    18
CTC1_L_00326003-03
1 14987U 25508LQ  26037.47804398  .00000000  00000+0  00000-0 0  9999
2 14987  65.0000  24.0000 0000000   0.0000 204.0000 14.51731110    19
CTC1_L_00326003-04
1 14988U 24380C   26037.47804398  .00000000  00000+0  00000-0 0  9997
2 14988  65.0000  24.0000 0000000   0.0000 294.0000 14.51731110    19
CTC1_L_00326004-01
1 14989U 22073BK  26037.47804398  .00000000  00000+0  00000-0 0  9995
2 14989  65.0000  36.0000 0000000   0.0000  36.0000 14.51731110    17
CTC1_L_00326004-02
1 14990U 26233NT  26037.47804398  .00000000  00000+0  00000-0 0  9999
2 14990  65.0000  36.0000 0000000   0.0000 126.0000 14.51731110    19
CTC1_L_00326004-03
1 14991U 22639BX  26037.47804398  .00000000  00000+0  00000-0 0  9996
2 14991  65.0000  36.0000 0000000   0.0000 216.0000 14.51731110    10
CTC1_L_00326004-04
1 14992U 26995PL  26037.47804398  .00000000  00000+0  00000-0 0  9996
2 14992  65.0000  36.0000 0000000   0.0000 306.0000 14.51731110    11
CTC1_L_00326005-01
1 14993U 25327CQ  26037.47804398  .00000000  00000+0  00000-0 0  9995
2 14993  65.0000  48.0000 0000000   0.0000  48.0000 14.51731110    18
CTC1_L_00326005-02
1 14994U 22499XB  26037.47804398  .00000000  00000+0  00000-0 0  9993
2 14994  65.0000  48.0000 0000000   0.0000 138.0000 14.51731110    19
CTC1_L_00326005-03
1 14995U 22961LT  26037.47804398  .00000000  00000+0  00000-0 0  9998
2 14995  65.0000  48.0000 0000000   0.0000 228.0000 14.51731110    10
CTC1_L_00326005-04
1 14996U 23673R   26037.47804398  .00000000  00000+0  00000-0 0  9990
2 14996  65.0000  48.0000 0000000   0.0000 318.0000 14.51731110    11
CTC1_L_00326006-01
1 14997U 22616LM  26037.47804398  .00000000  00000+0  00000-0 0  9997
2 14997  65.0000  60.0000 0000000   0.0000  60.0000 14.51731110    10
CTC1_L_00326006-02
1 14998U 25748DY  26037.47804398  .00000000  00000+0  00000-0 0  9997
2 14998  65.0000  60.0000 0000000   0.0000 150.0000 14.51731110    11
CTC1_L_00326006-03
1 14999U 25755TQ  26037.47804398  .00000000  00000+0  00000-0 0  9996
2 14999  65.0000  60.0000 0000000   0.0000 240.0000 14.51731110    12
CTC1_L_00326006-04
1 15000U 24466TQ  26037.47804398  .00000000  00000+0  00000-0 0  9998
2 15000  65.0000  60.0000 0000000   0.0000 330.0000 14.51731110    16
CTC1_L_00326007-01
1 15001U 24989BW  26037.47804398  .00000000  00000+0  00000-0 0  9999
2 15001  65.0000  72.0000 0000000   0.0000  72.0000 14.51731110    13
CTC1_L_00326007-02
1 15002U 23191MY  26037.47804398  .00000000  00000+0  00000-0 0  9994
2 15002  65.0000  72.0000 0000000   0.0000 162.0000 14.51731110    14
CTC1_L_00326007-03
1 15003U 24078IE  26037.47804398  .00000000  00000+0  00000-0 0  9990
2 15003  65.0000  72.0000 0000000   0.0000 252.0000 14.51731110    15
CTC1_L_00326007-04
1 15004U 25305BY  26037.47804398  .00000000  00000+0  00000-0 0  9995
2 15004  65.0000  72.0000 0000000   0.0000 342.0000 14.51731110    16
CTC1_L_00326008-01
1 15005U 25091HU  26037.47804398  .00000000  00000+0  00000-0 0  9998
2 15005  65.0000  84.0000 0000000   0.0000  84.0000 14.51731110    13
CTC1_L_00326008-02
1 15006U 26001EN  26037.47804398  .00000000  00000+0  00000-0 0  9991
2 15006  65.0000  84.0000 0000000   0.0000 174.0000 14.51731110    14
CTC1_L_00326008-03
1 15007U 22100XU  26037.47804398  .00000000  00000+0  00000-0 0  9998
2 15007  65.0000  84.0000 0000000   0.0000 264.0000 14.51731110    15
CTC1_L_00326008-04
1 15008U 23228ZV  26037.47804398  .00000000  00000+0  00000-0 0  9991
2 15008  65.0000  84.0000 0000000   0.0000 354.0000 14.51731110    16
CTC1_L_00326009-01
1 15009U 22652BC  26037.47804398  .00000000  00000+0  00000-0 0  9992
2 15009  65.0000  96.0000 0000000   0.0000  96.0000 14.51731110    13
CTC1_L_00326009-02
1 15010U 22099MP  26037.47804398  .00000000  00000+0  00000-0 0  9999
2 15010  65.0000  96.0000 0000000   0.0000 186.0000 14.51731110    15
CTC1_L_00326009-03
1 15011U 23750VM  26037.47804398  .00000000  00000+0  00000-0 0  9995
2 15011  65.0000  96.0000 0000000   0.0000 276.0000 14.51731110    16
CTC1_L_00326009-04
1 15012U 26293UN  26037.47804398  .00000000  00000+0  00000-0 0  9991
2 15012  65.0000  96.0000 0000000   0.0000   6.0000 14.51731110    18
CTC1_L_00326010-01
1 15013U 25905IK  26037.47804398  .00000000  00000+0  00000-0 0  9991
2 15013  65.0000 108.0000 0000000   0.0000 108.0000 14.51731110    16
CTC1_L_00326010-02
1 15014U 24047SX  26037.47804398  .00000000  00000+0  00000-0 0  9998
2 15014  65.0000 108.0000 0000000   0.0000 198.0000 14.51731110    16
CTC1_L_00326010-03
1 15015U 26657TI  26037.47804398  .00000000  00000+0  00000-0 0  9998
2 15015  65.0000 108.0000 0000000   0.0000 288.0000 14.51731110    17
CTC1_L_00326010-04
1 15016U 22618MJ  26037.47804398  .00000000  00000+0  00000-0 0  9992
2 15016  65.0000 108.0000 0000000   0.0000  18.0000 14.51731110    19
CTC1_L_00326011-01
1 15017U 25975LB  26037.47804398  .00000000  00000+0  00000-0 0  9992
2 15017  65.0000 120.0000 0000000   0.0000 120.0000 14.51731110    18
CTC1_L_00326011-02
1 15018U 25199AC  26037.47804398  .00000000  00000+0  00000-0 0  9991
2 15018  65.0000 120.0000 0000000   0.0000 210.0000 14.51731110    19
CTC1_L_00326011-03
1 15019U 25225YN  26037.47804398  .00000000  00000+0  00000-0 0  9992
2 15019  65.0000 120.0000 0000000   0.0000 300.0000 14.51731110    10
CTC1_L_00326011-04
1 15020U 22151BH  26037.47804398  .00000000  00000+0  00000-0 0  9999
2 15020  65.0000 120.0000 0000000   0.0000  30.0000 14.51731110    12
CTC1_L_00326012-01
1 15021U 25914OK  26037.47804398  .00000000  00000+0  00000-0 0  9990
2 15021  65.0000 132.0000 0000000   0.0000 132.0000 14.51731110    19
CTC1_L_00326012-02
1 15022U 23854WD  26037.47804398  .00000000  00000+0  00000-0 0  9992
2 15022  65.0000 132.0000 0000000   0.0000 222.0000 14.51731110    10
CTC1_L_00326012-03
1 15023U 26334XK  26037.47804398  .00000000  00000+0  00000-0 0  9999
2 15023  65.0000 132.0000 0000000   0.0000 312.0000 14.51731110    11
CTC1_L_00326012-04
1 15024U 26310HI  26037.47804398  .00000000  00000+0  00000-0 0  9994
2 15024  65.0000 132.0000 0000000   0.0000  42.0000 14.51731110    12
CTC1_L_00326013-01
1 15025U 24656PB  26037.47804398  .00000000  00000+0  00000-0 0  9996
2 15025  65.0000 144.0000 0000000   0.0000 144.0000 14.51731110    19
CTC1_L_00326013-02
1 15026U 24272BR  26037.47804398  .00000000  00000+0  00000-0 0  9991
2 15026  65.0000 144.0000 0000000   0.0000 234.0000 14.51731110    10
CTC1_L_00326013-03
1 15027U 25526TN  26037.47804398  .00000000  00000+0  00000-0 0  9995
2 15027  65.0000 144.0000 0000000   0.0000 324.0000 14.51731110    11
CTC1_L_00326013-04
1 15028U 23307HL  26037.47804398  .00000000  00000+0  00000-0 0  9991
2 15028  65.0000 144.0000 0000000   0.0000  54.0000 14.51731110    12
CTC1_L_00326014-01
1 15029U 22693TP  26037.47804398  .00000000  00000+0  00000-0 0  9999
2 15029  65.0000 156.0000 0000000   0.0000 156.0000 14.51731110    19
CTC1_L_00326014-02
1 15030U 24646MU  26037.47804398  .00000000  00000+0  00000-0 0  9991
2 15030  65.0000 156.0000 0000000   0.0000 246.0000 14.51731110    11
CTC1_L_00326014-03
1 15031U 26020JE  26037.47804398  .00000000  00000+0  00000-0 0  9990
2 15031  65.0000 156.0000 0000000   0.0000 336.0000 14.51731110    12
CTC1_L_00326014-04
1 15032U 22002YM  26037.47804398  .00000000  00000+0  00000-0 0  9997
2 15032  65.0000 156.0000 0000000   0.0000  66.0000 14.51731110    13
CTC1_L_00326015-01
1 15033U 24072FL  26037.47804398  .00000000  00000+0  00000-0 0  9997
2 15033  65.0000 168.0000 0000000   0.0000 168.0000 14.51731110    10
CTC1_L_00326015-02
1 15034U 25490VB  26037.47804398  .00000000  00000+0  00000-0 0  9993
2 15034  65.0000 168.0000 0000000   0.0000 258.0000 14.51731110    11
CTC1_L_00326015-03
1 15035U 23431JR  26037.47804398  .00000000  00000+0  00000-0 0  9997
2 15035  65.0000 168.0000 0000000   0.0000 348.0000 14.51731110    12
CTC1_L_00326015-04
1 15036U 23324QY  26037.47804398  .00000000  00000+0  00000-0 0  9999
2 15036  65.0000 168.0000 0000000   0.0000  78.0000 14.51731110    13
CTC1_L_00326016-01
1 15037U 25277RU  26037.47804398  .00000000  00000+0  00000-0 0  9999
2 15037  65.0000 180.0000 0000000   0.0000 180.0000 14.51731110    12
CTC1_L_00326016-02
1 15038U 26835WA  26037.47804398  .00000000  00000+0  00000-0 0  9991
2 15038  65.0000 180.0000 0000000   0.0000 270.0000 14.51731110    13
